ONEWEB-0352             
1 49216U 21083AG  26010.94685617 -.00000042  00000+0 -14953-3 0  9993
2 49216  87.8990 351.4891 0001381  77.9879 282.1405 13.13469192210381
ONEWEB-0354             
1 49217U 21083AH  26010.78622038 -.00000043  00000+0 -13679-3 0  9999
2 49217  87.9231 305.8348 0001744  86.6196 273.5137 13.20771180216038
ONEWEB-0355             
1 49218U 21083AJ  26010.97577652 -.00000264  00000+0 -75800-3 0  9991
2 49218  87.8987 351.4968 0001554  87.8525 272.2782 13.13469079210263
ONEWEB-0357             
1 49219U 21083AK  26010.78306221  .00000070  00000+0  13986-3 0  9993
2 49219  87.9230 305.8312 0001556  77.1264 283.0043 13.20772218216037
ONEWEB-0332             
1 49279U 21090A   26010.88315604 -.00000178  00000+0 -51500-3 0  9998
2 49279  87.9010 321.0599 0001711  71.0828 289.0487 13.14501242206912
ONEWEB-0347             
1 49280U 21090B   26010.77359192  .00000100  00000+0  21509-3 0  9997
2 49280  87.9226 305.8421 0001898  68.0461 292.0874 13.20772960210263
ONEWEB-0349             
1 49281U 21090C   26010.80515379  .00000000  00000+0 -33002-4 0  9995
2 49281  87.9228 305.8350 0001658  76.4978 283.6340 13.20771088209056
ONEWEB-0353             
1 49282U 21090D   26010.87524971 -.00000101  00000+0 -30784-3 0  9997
2 49282  87.9023 321.0501 0001790  69.5588 290.5734 13.14502947206910
ONEWEB-0356             
1 49283U 21090E   26010.80357524 -.00000020  00000+0 -81426-4 0  9999
2 49283  87.9230 305.8289 0002640  75.5713 284.5713 13.20771017209057
ONEWEB-0358             
1 49284U 21090F   26010.75781011  .00000031  00000+0  45517-4 0  9997
2 49284  87.9232 305.8396 0001843  79.9564 280.1777 13.20772153209778
ONEWEB-0359             
1 49285U 21090G   26010.75465154  .00000065  00000+0  12909-3 0  9990
2 49285  87.9227 305.8382 0001810  90.5280 269.6061 13.20771704209753
ONEWEB-0360             
1 49286U 21090H   26010.74518520  .00000069  00000+0  13738-3 0  9991
2 49286  87.9225 305.8473 0001700  80.8834 279.2492 13.20772484209063
ONEWEB-0361             
1 49287U 21090J   26010.80200704 -.00000021  00000+0 -83698-4 0  9994
2 49287  87.9228 305.8332 0001905  76.9946 283.1400 13.20772559209525
ONEWEB-0362             
1 49288U 21090K   26010.93320913 -.00000026  00000+0 -97577-4 0  9990
2 49288  87.9219 336.2738 0001524  82.5701 277.5605 13.19724972206179
ONEWEB-0363             
1 49289U 21090L   26010.74202365  .00000040  00000+0  66632-4 0  9992
2 49289  87.9230 305.8451 0002095  78.5144 281.6224 13.20771047209529
ONEWEB-0364             
1 49290U 21090M   26010.77990495  .00000046  00000+0  81826-4 0  9993
2 49290  87.9221 305.8581 0001857  77.5375 282.5966 13.20771056210665
ONEWEB-0365             
1 49291U 21090N   26010.33614893  .00000106  00000+0  23254-3 0  9998
2 49291  87.9237 336.3629 0001691  78.6731 281.4591 13.19726617205600
