[{"OBJECT_NAME":"ONEWEB-0352","OBJECT_ID":"2021-083AG","EPOCH":"2026-01-10T22:43:28.373088","MEAN_MOTION":13.13469192,"ECCENTRICITY":0.00013815,"INCLINATION":87.899,"RA_OF_ASC_NODE":351.4891,"ARG_OF_PERICENTER":77.9879,"MEAN_ANOMALY":282.1405,"EPHEMERIS_TYPE":0,"CLASSIFICATION_TYPE":"U","NORAD_CAT_ID":49216,"ELEMENT_SET_NO":999,"REV_AT_EPOCH":21038,"BSTAR":-0.00014953426,"MEAN_MOTION_DOT":-4.2e-7,"MEAN_MOTION_DDOT":0},{"OBJECT_NAME":"ONEWEB-0354","OBJECT_ID":"2021-083AH","EPOCH":"2026-01-10T18:52:09.440832","MEAN_MOTION":13.2077118,"ECCENTRICITY":0.00017443,"INCLINATION":87.9231,"RA_OF_ASC_NODE":305.8348,"ARG_OF_PERICENTER":86.6196,"MEAN_ANOMALY":273.5137,"EPHEMERIS_TYPE":0,"CLASSIFICATION_TYPE":"U","NORAD_CAT_ID":49217,"ELEMENT_SET_NO":999,"REV_AT_EPOCH":21603,"BSTAR":-0.00013679298,"MEAN_MOTION_DOT":-4.3e-7,"MEAN_MOTION_DDOT":0},{"OBJECT_NAME":"ONEWEB-0355","OBJECT_ID":"2021-083AJ","EPOCH":"2026-01-10T23:25:07.091328","MEAN_MOTION":13.13469079,"ECCENTRICITY":0.00015547,"INCLINATION":87.8987,"RA_OF_ASC_NODE":351.4968,"ARG_OF_PERICENTER":87.8525,"MEAN_ANOMALY":272.2782,"EPHEMERIS_TYPE":0,"CLASSIFICATION_TYPE":"U","NORAD_CAT_ID":49218,"ELEMENT_SET_NO":999,"REV_AT_EPOCH":21026,"BSTAR":-0.00075799506,"MEAN_MOTION_DOT":-2.64e-6,"MEAN_MOTION_DDOT":0},{"OBJECT_NAME":"ONEWEB-0357","OBJECT_ID":"2021-083AK","EPOCH":"2026-01-10T18:47:36.574944","MEAN_MOTION":13.20772218,"ECCENTRICITY":0.00015561,"INCLINATION":87.923,"RA_OF_ASC_NODE":305.8312,"ARG_OF_PERICENTER":77.1264,"MEAN_ANOMALY":283.0043,"EPHEMERIS_TYPE":0,"CLASSIFICATION_TYPE":"U","NORAD_CAT_ID":49219,"ELEMENT_SET_NO":999,"REV_AT_EPOCH":21603,"BSTAR":0.00013985796,"MEAN_MOTION_DOT":7.0e-7,"MEAN_MOTION_DDOT":0},{"OBJECT_NAME":"ONEWEB-0332","OBJECT_ID":"2021-090A","EPOCH":"2026-01-10T21:11:44.681856","MEAN_MOTION":13.14501242,"ECCENTRICITY":0.00017118,"INCLINATION":87.901,"RA_OF_ASC_NODE":321.0599,"ARG_OF_PERICENTER":71.0828,"MEAN_ANOMALY":289.0487,"EPHEMERIS_TYPE":0,"CLASSIFICATION_TYPE":"U","NORAD_CAT_ID":49279,"ELEMENT_SET_NO":999,"REV_AT_EPOCH":20691,"BSTAR":-0.00051499776,"MEAN_MOTION_DOT":-1.78e-6,"MEAN_MOTION_DDOT":0},{"OBJECT_NAME":"ONEWEB-0347","OBJECT_ID":"2021-090B","EPOCH":"2026-01-10T18:33:58.341888","MEAN_MOTION":13.2077296,"ECCENTRICITY":0.00018986,"INCLINATION":87.9226,"RA_OF_ASC_NODE":305.8421,"ARG_OF_PERICENTER":68.0461,"MEAN_ANOMALY":292.0874,"EPHEMERIS_TYPE":0,"CLASSIFICATION_TYPE":"U","NORAD_CAT_ID":49280,"ELEMENT_SET_NO":999,"REV_AT_EPOCH":21026,"BSTAR":0.0002150866,"MEAN_MOTION_DOT":1.0e-6,"MEAN_MOTION_DDOT":0},{"OBJECT_NAME":"ONEWEB-0349","OBJECT_ID":"2021-090C","EPOCH":"2026-01-10T19:19:25.287456","MEAN_MOTION":13.20771088,"ECCENTRICITY":0.00016585,"INCLINATION":87.9228,"RA_OF_ASC_NODE":305.835,"ARG_OF_PERICENTER":76.4978,"MEAN_ANOMALY":283.634,"EPHEMERIS_TYPE":0,"CLASSIFICATION_TYPE":"U","NORAD_CAT_ID":49281,"ELEMENT_SET_NO":999,"REV_AT_EPOCH":20905,"BSTAR":-3.3001735e-5,"MEAN_MOTION_DOT":0,"MEAN_MOTION_DDOT":0},{"OBJECT_NAME":"ONEWEB-0353","OBJECT_ID":"2021-090D","EPOCH":"2026-01-10T21:00:21.574944","MEAN_MOTION":13.14502947,"ECCENTRICITY":0.00017909,"INCLINATION":87.9023,"RA_OF_ASC_NODE":321.0501,"ARG_OF_PERICENTER":69.5588,"MEAN_ANOMALY":290.5734,"EPHEMERIS_TYPE":0,"CLASSIFICATION_TYPE":"U","NORAD_CAT_ID":49282,"ELEMENT_SET_NO":999,"REV_AT_EPOCH":20691,"BSTAR":-0.00030784258,"MEAN_MOTION_DOT":-1.01e-6,"MEAN_MOTION_DDOT":0},{"OBJECT_NAME":"ONEWEB-0356","OBJECT_ID":"2021-090E","EPOCH":"2026-01-10T19:17:08.900736","MEAN_MOTION":13.20771017,"ECCENTRICITY":0.00026401,"INCLINATION":87.923,"RA_OF_ASC_NODE":305.8289,"ARG_OF_PERICENTER":75.5713,"MEAN_ANOMALY":284.5713,"EPHEMERIS_TYPE":0,"CLASSIFICATION_TYPE":"U","NORAD_CAT_ID":49283,"ELEMENT_SET_NO":999,"REV_AT_EPOCH":20905,"BSTAR":-8.1426297e-5,"MEAN_MOTION_DOT":-2.0e-7,"MEAN_MOTION_DDOT":0},{"OBJECT_NAME":"ONEWEB-0358","OBJECT_ID":"2021-090F","EPOCH":"2026-01-10T18:11:14.793504","MEAN_MOTION":13.20772153,"ECCENTRICITY":0.00018439,"INCLINATION":87.9232,"RA_OF_ASC_NODE":305.8396,"ARG_OF_PERICENTER":79.9564,"MEAN_ANOMALY":280.1777,"EPHEMERIS_TYPE":0,"CLASSIFICATION_TYPE":"U","NORAD_CAT_ID":49284,"ELEMENT_SET_NO":999,"REV_AT_EPOCH":20977,"BSTAR":4.5517193e-5,"MEAN_MOTION_DOT":3.1e-7,"MEAN_MOTION_DDOT":0},{"OBJECT_NAME":"ONEWEB-0359","OBJECT_ID":"2021-090G","EPOCH":"2026-01-10T18:06:41.893056","MEAN_MOTION":13.20771704,"ECCENTRICITY":0.00018105,"INCLINATION":87.9227,"RA_OF_ASC_NODE":305.8382,"ARG_OF_PERICENTER":90.528,"MEAN_ANOMALY":269.6061,"EPHEMERIS_TYPE":0,"CLASSIFICATION_TYPE":"U","NORAD_CAT_ID":49285,"ELEMENT_SET_NO":999,"REV_AT_EPOCH":20975,"BSTAR":0.00012908859,"MEAN_MOTION_DOT":6.5e-7,"MEAN_MOTION_DDOT":0},{"OBJECT_NAME":"ONEWEB-0360","OBJECT_ID":"2021-090H","EPOCH":"2026-01-10T17:53:04.001280","MEAN_MOTION":13.20772484,"ECCENTRICITY":0.00017006,"INCLINATION":87.9225,"RA_OF_ASC_NODE":305.8473,"ARG_OF_PERICENTER":80.8834,"MEAN_ANOMALY":279.2492,"EPHEMERIS_TYPE":0,"CLASSIFICATION_TYPE":"U","NORAD_CAT_ID":49286,"ELEMENT_SET_NO":999,"REV_AT_EPOCH":20906,"BSTAR":0.00013737749,"MEAN_MOTION_DOT":6.9e-7,"MEAN_MOTION_DDOT":0},{"OBJECT_NAME":"ONEWEB-0361","OBJECT_ID":"2021-090J","EPOCH":"2026-01-10T19:14:53.408256","MEAN_MOTION":13.20772559,"ECCENTRICITY":0.00019054,"INCLINATION":87.9228,"RA_OF_ASC_NODE":305.8332,"ARG_OF_PERICENTER":76.9946,"MEAN_ANOMALY":283.14,"EPHEMERIS_TYPE":0,"CLASSIFICATION_TYPE":"U","NORAD_CAT_ID":49287,"ELEMENT_SET_NO":999,"REV_AT_EPOCH":20952,"BSTAR":-8.3698431e-5,"MEAN_MOTION_DOT":-2.1e-7,"MEAN_MOTION_DDOT":0},{"OBJECT_NAME":"ONEWEB-0362","OBJECT_ID":"2021-090K","EPOCH":"2026-01-10T22:23:49.268832","MEAN_MOTION":13.19724972,"ECCENTRICITY":0.00015243,"INCLINATION":87.9219,"RA_OF_ASC_NODE":336.2738,"ARG_OF_PERICENTER":82.5701,"MEAN_ANOMALY":277.5605,"EPHEMERIS_TYPE":0,"CLASSIFICATION_TYPE":"U","NORAD_CAT_ID":49288,"ELEMENT_SET_NO":999,"REV_AT_EPOCH":20617,"BSTAR":-9.7576575e-5,"MEAN_MOTION_DOT":-2.6e-7,"MEAN_MOTION_DDOT":0},{"OBJECT_NAME":"ONEWEB-0363","OBJECT_ID":"2021-090L","EPOCH":"2026-01-10T17:48:30.843360","MEAN_MOTION":13.20771047,"ECCENTRICITY":0.00020951,"INCLINATION":87.923,"RA_OF_ASC_NODE":305.8451,"ARG_OF_PERICENTER":78.5144,"MEAN_ANOMALY":281.6224,"EPHEMERIS_TYPE":0,"CLASSIFICATION_TYPE":"U","NORAD_CAT_ID":49289,"ELEMENT_SET_NO":999,"REV_AT_EPOCH":20952,"BSTAR":6.6631579e-5,"MEAN_MOTION_DOT":4.0e-7,"MEAN_MOTION_DDOT":0},{"OBJECT_NAME":"ONEWEB-0364","OBJECT_ID":"2021-090M","EPOCH":"2026-01-10T18:43:03.787680","MEAN_MOTION":13.20771056,"ECCENTRICITY":0.00018579,"INCLINATION":87.9221,"RA_OF_ASC_NODE":305.8581,"ARG_OF_PERICENTER":77.5375,"MEAN_ANOMALY":282.5966,"EPHEMERIS_TYPE":0,"CLASSIFICATION_TYPE":"U","NORAD_CAT_ID":49290,"ELEMENT_SET_NO":999,"REV_AT_EPOCH":21066,"BSTAR":8.1826121e-5,"MEAN_MOTION_DOT":4.6e-7,"MEAN_MOTION_DDOT":0},{"OBJECT_NAME":"ONEWEB-0365","OBJECT_ID":"2021-090N","EPOCH":"2026-01-10T08:04:03.267552","MEAN_MOTION":13.19726617,"ECCENTRICITY":0.00016919,"INCLINATION":87.9237,"RA_OF_ASC_NODE":336.3629,"ARG_OF_PERICENTER":78.6731,"MEAN_ANOMALY":281.4591,"EPHEMERIS_TYPE":0,"CLASSIFICATION_TYPE":"U","NORAD_CAT_ID":49291,"ELEMENT_SET_NO":999,"REV_AT_EPOCH":20560,"BSTAR":0.00023253522,"MEAN_MOTION_DOT":1.06e-6,"MEAN_MOTION_DDOT":0}]
